[{"OBJECT_NAME":"STARLINK-3310","OBJECT_ID":"2022-001AJ","EPOCH":"2026-03-09T13:45:09.156096","MEAN_MOTION":15.08839732,"ECCENTRICITY":0.0001412,"INCLINATION":53.2173,"RA_OF_ASC_NODE":179.7632,"ARG_OF_PERICENTER":72.1711,"MEAN_ANOMALY":287.9435,"EPHEMERIS_TYPE":0,"CLASSIFICATION_TYPE":"U","NORAD_CAT_ID":50835,"ELEMENT_SET_NO":999,"REV_AT_EPOCH":23024,"BSTAR":3.0092e-5,"MEAN_MOTION_DOT":1.91e-6,"MEAN_MOTION_DDOT":0},{"OBJECT_NAME":"POSAT-2","OBJECT_ID":"2025-009DR","EPOCH":"2026-03-09T23:15:20.314368","MEAN_MOTION":15.10404492,"ECCENTRICITY":0.00077103,"INCLINATION":97.4906,"RA_OF_ASC_NODE":146.0095,"ARG_OF_PERICENTER":126.4226,"MEAN_ANOMALY":233.7715,"EPHEMERIS_TYPE":0,"CLASSIFICATION_TYPE":"U","NORAD_CAT_ID":63488,"ELEMENT_SET_NO":999,"REV_AT_EPOCH":5165,"BSTAR":0.0010942248,"MEAN_MOTION_DOT":0.00017957,"MEAN_MOTION_DDOT":0}]
